#cP2024  2 26  6  0  0.00000000     577 d+D   IGS20 EXT AIUB
## 2303 108000.00000000   300.00000000 60366 0.2500000000000
+   79   G01G02G03G04G05G06G07G08G09G10G11G12G13G14G15G16G17
+        G18G19G20G21G22G23G24G25G26G27G28G29G30G31G32R01R02
+        R03R04R05R07R08R09R11R12R13R14R15R16R17R18R19R20R21
+        R22R24R26E02E03E04E05E07E08E09E10E11E12E13E14E15E18
+        E19E21E24E25E26E27E30E31E33E34E36  0  0  0  0  0  0
++         6  7  5  6  7  6  6  6  6  5  7  7  7  5  7  7  7
++         7  7  7  7  7  6  7  5  6  6  7  7  6  7  6  8  7
++         7  8  7  8  8  6  6  6  7  6  7  7  9  7  8  9  8
++         7  8  7  5  7  6  6  7  7  7  7  6  6  6  7  7  7
++         7  5  6  6  7  5  5  6  7  7  7  0  0  0  0  0  0
%c M  cc GPS ccc cccc cccc cccc cccc ccccc ccccc ccccc ccccc
%c cc cc ccc ccc cccc cccc cccc cccc ccccc ccccc ccccc ccccc
%f  1.2500000  1.025000000  0.00000000000  0.000000000000000
%f  0.0000000  0.000000000  0.00000000000  0.000000000000000
%i    0    0    0    0      0      0      0      0         0
%i    0    0    0    0      0      0      0      0         0
/* Center for Orbit Determination in Europe (CODE)          
/* Ultra-rapid GRE orbits starting year-day 24057 06 hour   
/* Observed/predicted: 25/23 hours (data used up to 058G)   
/* PCV:IGS20      OL/AL:FES2014b NONE     YN ORB:CoN CLK:BRD
*  2024  2 27  6  5  0.00000000
PG01 -11775.849610  23604.648141   -255.238122    171.306124
PG02 -14808.391490  19791.277446   9849.972105   -479.027218
PG03 -17498.665595  12007.491751 -16039.276716    218.863708
PG04  -7985.951486  14368.048784 -20816.400341    301.737307
PG05  25486.928340  -6164.722617   4346.240081   -163.339953
PG06  10216.888209  11362.026555 -21639.210826    390.726160
PG07  -3007.063472  24037.923036  10807.387162    -71.611587
PG08 -14256.009107   6248.797536  21455.779228     13.776087
PG09   4308.333054  22409.378907 -13624.598588    105.939003
PG10 -15886.056280 -11159.139112  18478.836383      1.141699
PG11  16652.674563   -827.950401 -20639.555545   -589.363270
PG12  18727.253165 -10956.019730 -15562.779018   -481.963783
PG13  17115.320607   4197.910568  19738.480712    629.263556
PG14  11828.553944  13572.377995  19610.532047    336.438590
PG15  13591.619381  -8032.968593  20885.537359    131.952839
PG16 -26791.035717   -917.300608   -876.128295   -353.582905
PG17  12339.942716  23369.979817   2007.379864    715.627392
PG18   3169.186339 -23645.317091  11489.594304   -564.363844
PG19  16661.509109  19419.192897  -7980.683769    446.369146
PG20  25031.470220   -110.236155  -8575.950550    385.967572
PG21 -16266.093790  15108.215448  14268.898640    133.434833
PG22  18469.433159  11213.255105  15675.885906     24.602803
PG23  -2498.443025 -14671.737660  22026.191013    165.004911
PG24  15090.884320 -18723.414966  10396.205664   -438.220434
PG25   7576.636995 -15422.253677 -20525.677902    489.795922
PG26 -23508.730855  -5216.529091 -11749.639239    185.781759
PG27 -19157.618633  -6938.974013  16986.462192     -7.502724
PG28  -9386.981453 -14111.323004 -20469.882759   -145.048599
PG29   -952.903510 -21958.316156 -14888.866597   -606.096542
PG30   5606.891471  18769.978264  17945.784836   -427.168190
PG31 -15136.869948  -4094.557525 -21679.593513   -227.889080
PG32 -15836.038460 -21426.761531  -1055.257941   -613.643834
PR01   6165.131020  14931.503834 -19739.217380     78.230371
PR02  18961.709326  16038.874689  -5619.713360    -22.527087
PR03  21362.929163   7612.025263  11669.448305     95.327230
PR04  11883.911818  -4360.145117  22177.035563    225.212134
PR05  -3841.482261 -14283.415315  20805.081423    127.559733
PR07 -21176.564963  -7180.354346 -12276.274949     76.729009
PR08 -11750.604095   4640.239417 -22100.400615    -74.553630
PR09 -10361.663791  -6949.553932 -22223.578640    172.283912
PR11 -21732.364312  12922.754371   3315.855484     33.009642
PR12  -7907.729466  14465.211678  19488.313413     37.194589
PR13   7931.670027   8229.536206  22782.748258    -44.759620
PR14  21880.849920  -4504.648423  12333.964497     26.102697
PR15  21250.591307 -13274.066245  -4783.147573     81.844337
PR16   8189.901309 -14453.663643 -19366.625493     23.582796
PR17  10547.409940    952.843606 -23196.798577     64.539931
PR18   9181.366845 -16238.162735 -17411.626132    129.443073
PR19   4688.758968 -24693.797736  -4359.964844   -267.354824
PR20  -4877.304517 -19465.216023  15787.812244   -108.912433
PR21 -10483.574935   -736.948884  23243.309260    -80.207981
PR22  -9701.358735  16784.641933  16594.905819    110.101367
PR24   6229.365711  18822.814859 -16036.129310    -45.576807
PR26 -12483.714684   4058.960506 -21841.365244   -196.151177
PE02  28012.943992   4402.355846   8442.114278    106.755768
PE03  21577.045562  12659.865274  15830.263454    -96.559459
PE04 -15177.241938   7708.188467 -24205.686826   -336.874127
PE05  15273.399749  25301.971698  -1648.493120   4723.929925
PE07    363.270733 -23052.004225  18567.688877   -105.939935
PE08  15501.758362  -6901.447308  24257.124018   -230.314242
PE09   -340.857622  22943.021427 -18701.426450   -350.821136
PE10 -16099.419155  24206.444003   5558.668197   -605.098067
PE11 -10179.935418  27333.498153  -4980.547305   3219.259765
PE12 -19092.317674  17713.117450  14044.378634   -924.141630
PE13  10617.304610 -27300.242619   4323.420188    -20.321218
PE14  23531.078419  18568.099775 -12462.872520 999999.999999
PE15  19124.092859 -17322.909094 -14508.339164    -88.114465
PE18 -17378.953776 -11371.609576  10986.055730 999999.999999
PE19 -21343.275904 -14780.726353 -14211.082271   -536.447498
PE21 -13931.584927 -14348.108521 -21833.249296   -581.120850
PE24  -9414.785408  16327.545172  22807.562313   -620.931589
PE25  13504.181163  14482.674047  21994.669455      1.425332
PE26  -4547.023730 -20786.200365  20588.740760    380.667399
PE27   8894.005973 -16387.978520 -22992.254551   -284.999961
PE30  26349.547851  -8574.959256 -10403.361694    -39.053632
PE31 -26231.920700   8740.184108  10576.867947    -16.950910
PE33 -16058.718453  -3271.558666  24655.089130      8.212657
PE34  16306.697259   2639.824052 -24562.732914    -96.918363
PE36   3953.377428  21152.505437 -20311.811694   -191.638934
EOF
